[{"OBJECT_NAME":"STARLINK-30466","OBJECT_ID":"2023-146P","EPOCH":"2026-03-09T22:00:01.999584","MEAN_MOTION":15.06656743,"ECCENTRICITY":0.00023085,"INCLINATION":43.0004,"RA_OF_ASC_NODE":311.9092,"ARG_OF_PERICENTER":267.3679,"MEAN_ANOMALY":62.4608,"EPHEMERIS_TYPE":0,"CLASSIFICATION_TYPE":"U","NORAD_CAT_ID":57904,"ELEMENT_SET_NO":999,"REV_AT_EPOCH":572,"BSTAR":0.10518613,"MEAN_MOTION_DOT":0.01742724,"MEAN_MOTION_DDOT":0},{"OBJECT_NAME":"CROCUBE","OBJECT_ID":"2024-247T","EPOCH":"2026-03-08T03:49:45.348960","MEAN_MOTION":15.41186504,"ECCENTRICITY":0.00023252,"INCLINATION":44.9727,"RA_OF_ASC_NODE":105.9036,"ARG_OF_PERICENTER":5.5541,"MEAN_ANOMALY":354.5373,"EPHEMERIS_TYPE":0,"CLASSIFICATION_TYPE":"U","NORAD_CAT_ID":62394,"ELEMENT_SET_NO":999,"REV_AT_EPOCH":6772,"BSTAR":0.0011048401,"MEAN_MOTION_DOT":0.0004678,"MEAN_MOTION_DDOT":0}]
